IRIDIUM 57 [-]          
1 25273U 98019B   24065.26045356  .00000490  00000+0  16510-3 0  9992
2 25273  86.4014 341.6552 0002136  86.6799 273.4642 14.35107694357516
IRIDIUM 63 [-]          
1 25286U 98021B   24065.60174550  .00000499  00000+0  16648-3 0  9997
2 25286  86.3935 278.4198 0002078  82.8241 277.3192 14.35625242356593
IRIDIUM 69 [-]          
1 25319U 98026A   24065.62569902  .00000469  00000+0  14320-3 0  9992
2 25319  86.3951 293.1163 0004110 108.3083 251.8564 14.39818195355618
IRIDIUM 71 [-]          
1 25320U 98026B   24065.57925687  .00000549  00000+0  16755-3 0  9997
2 25320  86.3937 287.9173 0002573 140.4072 219.7315 14.40144182356126
IRIDIUM 73 [-]          
1 25344U 98032C   24065.54313350  .00000890  00000+0  22313-3 0  9991
2 25344  86.4383 245.4878 0002631  99.5450 260.6052 14.50326304362600
IRIDIUM 82 [-]          
1 25467U 98051A   24065.27043297  .00011091  00000+0  59784-3 0  9995
2 25467  86.3899 334.9293 0133989 241.5486 117.2198 15.07151273352826
IRIDIUM 2 [-]           
1 25527U 98066A   24065.30186569  .00072730  00000+0  96468-3 0  9999
2 25527  85.5149  10.0167 0006444  68.7666 291.4284 15.57970836391618
